[{"OBJECT_NAME":"STARLINK-5734","OBJECT_ID":"2023-020AV","EPOCH":"2026-01-24T13:52:14.383200","MEAN_MOTION":15.02531995,"ECCENTRICITY":0.00012212,"INCLINATION":43.0026,"RA_OF_ASC_NODE":231.3669,"ARG_OF_PERICENTER":274.495,"MEAN_ANOMALY":85.5753,"EPHEMERIS_TYPE":0,"CLASSIFICATION_TYPE":"U","NORAD_CAT_ID":55612,"ELEMENT_SET_NO":999,"REV_AT_EPOCH":16243,"BSTAR":0.00013666858,"MEAN_MOTION_DOT":1.643e-5,"MEAN_MOTION_DDOT":0},{"OBJECT_NAME":"STARLINK-5714","OBJECT_ID":"2023-020AX","EPOCH":"2026-01-24T20:21:53.970048","MEAN_MOTION":15.02533043,"ECCENTRICITY":0.00013226,"INCLINATION":43.003,"RA_OF_ASC_NODE":216.9023,"ARG_OF_PERICENTER":273.5294,"MEAN_ANOMALY":86.5397,"EPHEMERIS_TYPE":0,"CLASSIFICATION_TYPE":"U","NORAD_CAT_ID":55614,"ELEMENT_SET_NO":999,"REV_AT_EPOCH":16262,"BSTAR":0.00013644371,"MEAN_MOTION_DOT":1.64e-5,"MEAN_MOTION_DDOT":0},{"OBJECT_NAME":"STARLINK-5712","OBJECT_ID":"2023-020AY","EPOCH":"2026-01-24T21:46:04.910592","MEAN_MOTION":15.02534441,"ECCENTRICITY":0.00011665,"INCLINATION":43.002,"RA_OF_ASC_NODE":229.533,"ARG_OF_PERICENTER":265.6986,"MEAN_ANOMALY":94.3723,"EPHEMERIS_TYPE":0,"CLASSIFICATION_TYPE":"U","NORAD_CAT_ID":55615,"ELEMENT_SET_NO":999,"REV_AT_EPOCH":16248,"BSTAR":0.00010523791,"MEAN_MOTION_DOT":1.218e-5,"MEAN_MOTION_DDOT":0},{"OBJECT_NAME":"STARLINK-5710","OBJECT_ID":"2023-020AZ","EPOCH":"2026-01-24T15:10:22.085184","MEAN_MOTION":15.025376,"ECCENTRICITY":7.872e-5,"INCLINATION":43.0017,"RA_OF_ASC_NODE":230.9136,"ARG_OF_PERICENTER":263.4102,"MEAN_ANOMALY":96.6651,"EPHEMERIS_TYPE":0,"CLASSIFICATION_TYPE":"U","NORAD_CAT_ID":55616,"ELEMENT_SET_NO":999,"REV_AT_EPOCH":16244,"BSTAR":-3.519572e-6,"MEAN_MOTION_DOT":-2.51e-6,"MEAN_MOTION_DDOT":0},{"OBJECT_NAME":"STARLINK-5721","OBJECT_ID":"2023-020BA","EPOCH":"2026-01-24T21:41:17.083680","MEAN_MOTION":15.02538934,"ECCENTRICITY":0.00010053,"INCLINATION":43.003,"RA_OF_ASC_NODE":229.5093,"ARG_OF_PERICENTER":279.1475,"MEAN_ANOMALY":80.9253,"EPHEMERIS_TYPE":0,"CLASSIFICATION_TYPE":"U","NORAD_CAT_ID":55617,"ELEMENT_SET_NO":999,"REV_AT_EPOCH":16248,"BSTAR":0.00023607627,"MEAN_MOTION_DOT":2.987e-5,"MEAN_MOTION_DDOT":0},{"OBJECT_NAME":"STARLINK-5717","OBJECT_ID":"2023-020BB","EPOCH":"2026-01-24T15:08:47.342400","MEAN_MOTION":15.02528645,"ECCENTRICITY":0.00011766,"INCLINATION":43.0027,"RA_OF_ASC_NODE":230.9063,"ARG_OF_PERICENTER":274.3626,"MEAN_ANOMALY":85.7082,"EPHEMERIS_TYPE":0,"CLASSIFICATION_TYPE":"U","NORAD_CAT_ID":55618,"ELEMENT_SET_NO":999,"REV_AT_EPOCH":16244,"BSTAR":0.0001220002,"MEAN_MOTION_DOT":1.444e-5,"MEAN_MOTION_DDOT":0},{"OBJECT_NAME":"STARLINK-5720","OBJECT_ID":"2023-020BC","EPOCH":"2026-01-24T15:03:58.844160","MEAN_MOTION":15.02528407,"ECCENTRICITY":0.00010638,"INCLINATION":43.0048,"RA_OF_ASC_NODE":230.8803,"ARG_OF_PERICENTER":267.7042,"MEAN_ANOMALY":92.3679,"EPHEMERIS_TYPE":0,"CLASSIFICATION_TYPE":"U","NORAD_CAT_ID":55619,"ELEMENT_SET_NO":999,"REV_AT_EPOCH":16244,"BSTAR":9.9895563e-5,"MEAN_MOTION_DOT":1.146e-5,"MEAN_MOTION_DDOT":0},{"OBJECT_NAME":"STARLINK-5718","OBJECT_ID":"2023-020BD","EPOCH":"2026-01-24T13:23:28.355712","MEAN_MOTION":15.02528156,"ECCENTRICITY":0.00012635,"INCLINATION":43.0026,"RA_OF_ASC_NODE":231.2151,"ARG_OF_PERICENTER":262.6835,"MEAN_ANOMALY":97.3864,"EPHEMERIS_TYPE":0,"CLASSIFICATION_TYPE":"U","NORAD_CAT_ID":55620,"ELEMENT_SET_NO":999,"REV_AT_EPOCH":16243,"BSTAR":0.00015206488,"MEAN_MOTION_DOT":1.851e-5,"MEAN_MOTION_DDOT":0},{"OBJECT_NAME":"STARLINK-5709","OBJECT_ID":"2023-020BE","EPOCH":"2026-01-24T21:38:05.625600","MEAN_MOTION":15.02533576,"ECCENTRICITY":0.00010594,"INCLINATION":43.0027,"RA_OF_ASC_NODE":229.4942,"ARG_OF_PERICENTER":268.6889,"MEAN_ANOMALY":91.3832,"EPHEMERIS_TYPE":0,"CLASSIFICATION_TYPE":"U","NORAD_CAT_ID":55621,"ELEMENT_SET_NO":999,"REV_AT_EPOCH":16248,"BSTAR":0.00013373107,"MEAN_MOTION_DOT":1.603e-5,"MEAN_MOTION_DDOT":0},{"OBJECT_NAME":"STARLINK-5702","OBJECT_ID":"2023-020BF","EPOCH":"2026-01-24T14:55:58.361664","MEAN_MOTION":15.02525693,"ECCENTRICITY":0.00019857,"INCLINATION":43.0024,"RA_OF_ASC_NODE":230.8397,"ARG_OF_PERICENTER":282.5697,"MEAN_ANOMALY":77.4923,"EPHEMERIS_TYPE":0,"CLASSIFICATION_TYPE":"U","NORAD_CAT_ID":55622,"ELEMENT_SET_NO":999,"REV_AT_EPOCH":16244,"BSTAR":6.0659812e-5,"MEAN_MOTION_DOT":6.15e-6,"MEAN_MOTION_DDOT":0},{"OBJECT_NAME":"STARLINK-5698","OBJECT_ID":"2023-020BG","EPOCH":"2026-01-24T14:49:36.461568","MEAN_MOTION":15.02531182,"ECCENTRICITY":0.00012862,"INCLINATION":43.0025,"RA_OF_ASC_NODE":230.8056,"ARG_OF_PERICENTER":272.6171,"MEAN_ANOMALY":87.4524,"EPHEMERIS_TYPE":0,"CLASSIFICATION_TYPE":"U","NORAD_CAT_ID":55623,"ELEMENT_SET_NO":999,"REV_AT_EPOCH":16244,"BSTAR":0.00016249825,"MEAN_MOTION_DOT":1.992e-5,"MEAN_MOTION_DDOT":0},{"OBJECT_NAME":"STARLINK-5484","OBJECT_ID":"2023-021A","EPOCH":"2026-01-24T19:29:15.450432","MEAN_MOTION":14.98329901,"ECCENTRICITY":0.00027553,"INCLINATION":70.0018,"RA_OF_ASC_NODE":315.1704,"ARG_OF_PERICENTER":266.6643,"MEAN_ANOMALY":93.42,"EPHEMERIS_TYPE":0,"CLASSIFICATION_TYPE":"U","NORAD_CAT_ID":55628,"ELEMENT_SET_NO":999,"REV_AT_EPOCH":16172,"BSTAR":0.00016348228,"MEAN_MOTION_DOT":1.858e-5,"MEAN_MOTION_DDOT":0},{"OBJECT_NAME":"STARLINK-5497","OBJECT_ID":"2023-021B","EPOCH":"2026-01-24T13:10:45.978528","MEAN_MOTION":14.98315838,"ECCENTRICITY":0.00027962,"INCLINATION":70.0007,"RA_OF_ASC_NODE":315.8606,"ARG_OF_PERICENTER":273.9705,"MEAN_ANOMALY":86.1134,"EPHEMERIS_TYPE":0,"CLASSIFICATION_TYPE":"U","NORAD_CAT_ID":55629,"ELEMENT_SET_NO":999,"REV_AT_EPOCH":16168,"BSTAR":9.1067766e-5,"MEAN_MOTION_DOT":9.93e-6,"MEAN_MOTION_DDOT":0},{"OBJECT_NAME":"STARLINK-5303","OBJECT_ID":"2023-021C","EPOCH":"2026-01-24T19:23:12.100416","MEAN_MOTION":14.98369178,"ECCENTRICITY":0.000332,"INCLINATION":70.0003,"RA_OF_ASC_NODE":315.1581,"ARG_OF_PERICENTER":267.8962,"MEAN_ANOMALY":92.1817,"EPHEMERIS_TYPE":0,"CLASSIFICATION_TYPE":"U","NORAD_CAT_ID":55630,"ELEMENT_SET_NO":999,"REV_AT_EPOCH":16172,"BSTAR":0.00048725375,"MEAN_MOTION_DOT":5.732e-5,"MEAN_MOTION_DDOT":0},{"OBJECT_NAME":"STARLINK-5558","OBJECT_ID":"2023-021D","EPOCH":"2026-01-24T04:21:58.054752","MEAN_MOTION":14.98354014,"ECCENTRICITY":0.000324,"INCLINATION":70.0026,"RA_OF_ASC_NODE":316.5848,"ARG_OF_PERICENTER":270.0971,"MEAN_ANOMALY":89.9817,"EPHEMERIS_TYPE":0,"CLASSIFICATION_TYPE":"U","NORAD_CAT_ID":55631,"ELEMENT_SET_NO":999,"REV_AT_EPOCH":16163,"BSTAR":0.00084938,"MEAN_MOTION_DOT":0.00010063,"MEAN_MOTION_DDOT":0},{"OBJECT_NAME":"STARLINK-5546","OBJECT_ID":"2023-021E","EPOCH":"2026-01-24T19:11:14.279712","MEAN_MOTION":14.98337866,"ECCENTRICITY":0.00030765,"INCLINATION":70.0017,"RA_OF_ASC_NODE":315.126,"ARG_OF_PERICENTER":269.633,"MEAN_ANOMALY":90.4476,"EPHEMERIS_TYPE":0,"CLASSIFICATION_TYPE":"U","NORAD_CAT_ID":55632,"ELEMENT_SET_NO":999,"REV_AT_EPOCH":16172,"BSTAR":0.00020318412,"MEAN_MOTION_DOT":2.333e-5,"MEAN_MOTION_DDOT":0}]
