STARLINK-5734           
1 55612U 23020AV  26024.57794425  .00001643  00000+0  13667-3 0  9992
2 55612  43.0026 231.3669 0001221 274.4950  85.5753 15.02531995162432
STARLINK-5714           
1 55614U 23020AX  26024.84854132  .00001640  00000+0  13644-3 0  9998
2 55614  43.0030 216.9023 0001322 273.5294  86.5397 15.02533043162627
STARLINK-5712           
1 55615U 23020AY  26024.90700128  .00001218  00000+0  10524-3 0  9996
2 55615  43.0020 229.5330 0001166 265.6986  94.3723 15.02534441162481
STARLINK-5710           
1 55616U 23020AZ  26024.63220006 -.00000251  00000+0 -35196-5 0  9991
2 55616  43.0017 230.9136 0000787 263.4102  96.6651 15.02537600162443
STARLINK-5721           
1 55617U 23020BA  26024.90366995  .00002987  00000+0  23608-3 0  9999
2 55617  43.0030 229.5093 0001005 279.1475  80.9253 15.02538934162485
STARLINK-5717           
1 55618U 23020BB  26024.63110350  .00001444  00000+0  12200-3 0  9995
2 55618  43.0027 230.9063 0001176 274.3626  85.7082 15.02528645162446
STARLINK-5720           
1 55619U 23020BC  26024.62776440  .00001146  00000+0  99896-4 0  9999
2 55619  43.0048 230.8803 0001063 267.7042  92.3679 15.02528407162446
STARLINK-5718           
1 55620U 23020BD  26024.55796708  .00001851  00000+0  15206-3 0  9997
2 55620  43.0026 231.2151 0001263 262.6835  97.3864 15.02528156162432
STARLINK-5709           
1 55621U 23020BE  26024.90145400  .00001603  00000+0  13373-3 0  9992
2 55621  43.0027 229.4942 0001059 268.6889  91.3832 15.02533576162485
STARLINK-5702           
1 55622U 23020BF  26024.62220326  .00000615  00000+0  60660-4 0  9997
2 55622  43.0024 230.8397 0001985 282.5697  77.4923 15.02525693162446
STARLINK-5698           
1 55623U 23020BG  26024.61778312  .00001992  00000+0  16250-3 0  9994
2 55623  43.0025 230.8056 0001286 272.6171  87.4524 15.02531182162449
STARLINK-5484           
1 55628U 23021A   26024.81198438  .00001858  00000+0  16348-3 0  9996
2 55628  70.0018 315.1704 0002755 266.6643  93.4200 14.98329901161728
STARLINK-5497           
1 55629U 23021B   26024.54914327  .00000993  00000+0  91068-4 0  9992
2 55629  70.0007 315.8606 0002796 273.9705  86.1134 14.98315838161684
STARLINK-5303           
1 55630U 23021C   26024.80777894  .00005732  00000+0  48725-3 0  9996
2 55630  70.0003 315.1581 0003320 267.8962  92.1817 14.98369178161724
STARLINK-5558           
1 55631U 23021D   26024.18192193  .00010063  00000+0  84938-3 0  9990
2 55631  70.0026 316.5848 0003240 270.0971  89.9817 14.98354014161635
STARLINK-5546           
1 55632U 23021E   26024.79947083  .00002333  00000+0  20318-3 0  9997
2 55632  70.0017 315.1260 0003076 269.6330  90.4476 14.98337866161723
